NORAD_CAT_ID,OBJECT_NAME,OBJECT_TYPE,EPOCH,MEAN_MOTION,ECCENTRICITY,INCLINATION,RA_OF_ASC_NODE,ARG_OF_PERICENTER,MEAN_ANOMALY,BSTAR,MEAN_MOTION_DOT,MEAN_MOTION_DDOT,TLE_LINE0,TLE_LINE1,TLE_LINE2,SEMIMAJOR_AXIS,PERIOD,APOGEE,PERIGEE,DECAYED
52298.0,STARLINK-3760,PAYLOAD,2022-05-24 12:57:51,15.73209663,0.0003689,53.2164,212.1934,20.6172,339.4997,6.3747e-05,8.338e-05,0.0,0 STARLINK-3760,1 52298U 22041AP  22144.54018081  .00008338  00000-0  63747-4 0  9998,2 52298  53.2164 212.1934 0003689  20.6172 339.4997 15.73209663  5185,6727.868,91.533,352.215,347.251,0.0
52298.0,STARLINK-3760,PAYLOAD,2022-05-24 14:00:01,15.73171623,0.0004053,53.2155,211.9817,7.7328,236.9536,-0.00014537,-0.0002096,0.0,0 STARLINK-3760,1 52298U 22041AP  22144.58334491 -.00020960  00000-0 -14537-3 0  9997,2 52298  53.2155 211.9817 0004053   7.7328 236.9536 15.73171623  6407,6727.976,91.535,352.5680000000001,347.11400000000015,0.0
52298.0,STARLINK-3760,PAYLOAD,2022-05-24 22:00:00,15.73161332,0.0003922,53.2157,210.3305,6.1993,327.3852,0.00032225,0.00044785,0.0,0 STARLINK-3760,1 52298U 22041AP  22144.91667824  .00044785  00000-0  32225-3 0  9996,2 52298  53.2157 210.3305 0003922   6.1993 327.3852 15.73161332  1305,6728.005,91.535,352.509,347.232,0.0
52298.0,STARLINK-3760,PAYLOAD,2022-05-25 06:00:00,15.732306,0.0003919,53.2159,208.6809,6.5760000000000005,55.9005,-0.00045271,-0.00063793,0.0,0 STARLINK-3760,1 52298U 22041AP  22145.25001157 -.00063793  00000-0 -45271-3 0  9992,2 52298  53.2159 208.6809 0003919   6.5760  55.9005 15.73230600  6504,6727.808000000001,91.531,352.31,347.036,0.0
52298.0,STARLINK-3760,PAYLOAD,2022-05-25 14:00:01,15.73150889,0.0004227,53.2156,207.0333,5.301,146.1176,0.00070712,0.00099629,0.0,0 STARLINK-3760,1 52298U 22041AP  22145.58334491  .00099629  00000-0  70712-3 0  9991,2 52298  53.2156 207.0333 0004227   5.3010 146.1176 15.73150889  1309,6728.035,91.536,352.744,347.056,0.0
52298.0,STARLINK-3760,PAYLOAD,2022-05-25 22:00:00,15.73254548,0.0004004,53.2153,205.382,4.6237,235.7175,-0.00025983,-0.00037033,0.0,0 STARLINK-3760,1 52298U 22041AP  22145.91667824 -.00037033  00000-0 -25983-3 0  9990,2 52298  53.2153 205.3820 0004004   4.6237 235.7175 15.73254548  6614,6727.74,91.53,352.298,346.911,0.0
52298.0,STARLINK-3760,PAYLOAD,2022-05-26 12:13:45,15.73218406,0.0004141,53.2159,202.4477,10.554,349.5566,6.1934e-05,8.086e-05,0.0,0 STARLINK-3760,1 52298U 22041AP  22146.50955689  .00008086  00000-0  61934-4 0  9996,2 52298  53.2159 202.4477 0004141  10.5540 349.5566 15.73218406  5497,6727.843000000003,91.532,352.494,346.922,0.0
52298.0,STARLINK-3760,PAYLOAD,2022-05-26 22:00:00,15.73154161,0.000405,53.2157,200.4334,359.1598,148.0568,0.00041498,0.00057927,0.0,0 STARLINK-3760,1 52298U 22041AP  22146.91667824  .00057927  00000-0  41498-3 0  9992,2 52298  53.2157 200.4334 0004050 359.1598 148.0568 15.73154161  1306,6728.026,91.536,352.616,347.166,0.0
52298.0,STARLINK-3760,PAYLOAD,2022-05-27 02:00:01,15.73178178,0.0004017,53.2156,199.608,1.0795,10.5797,0.00029631,0.00041143,0.0,0 STARLINK-3760,1 52298U 22041AP  22147.08334491  .00041143  00000-0  29631-3 0  9990,2 52298  53.2156 199.6080 0004017   1.0795  10.5797 15.73178178  6796,6727.956999999999,91.534,352.525,347.12,0.0
52298.0,STARLINK-3760,PAYLOAD,2022-05-27 14:00:01,15.73129444,0.0004388999999999,53.2153,197.1365,5.4881,319.5229,0.00062877,0.00088323,0.0,0 STARLINK-3760,1 52298U 22041AP  22147.58334491  .00088323  00000-0  62877-3 0  9995,2 52298  53.2153 197.1365 0004389   5.4881 319.5229 15.73129444  6871,6728.096,91.537,352.914,347.0080000000001,0.0
52298.0,STARLINK-3760,PAYLOAD,2022-05-27 22:00:01,15.73176192,0.000411,53.215,195.485,6.0149,47.9577,0.00048406,0.00067819,0.0,0 STARLINK-3760,1 52298U 22041AP  22147.91668981  .00067819  00000-0  48406-3 0  9995,2 52298  53.2150 195.4850 0004110   6.0149  47.9577 15.73176192  1307,6727.9630000000025,91.535,352.593,347.06300000000016,0.0
52298.0,STARLINK-3760,PAYLOAD,2022-05-28 03:52:15,15.73205862,0.0004291,53.2154,194.2741,10.7025,349.4086,2.7813000000000013e-05,3.282e-05,0.0,0 STARLINK-3760,1 52298U 22041AP  22148.16129286  .00003282  00000-0  27813-4 0  9997,2 52298  53.2154 194.2741 0004291  10.7025 349.4086 15.73205862  6961,6727.878000000002,91.533,352.63,346.857,0.0
52298.0,STARLINK-3760,PAYLOAD,2022-05-28 13:01:07,15.73233408,0.0004257,53.2151,192.388,8.0528,352.0559,0.00010417,0.00014047,0.0,0 STARLINK-3760,1 52298U 22041AP  22148.54245042  .00014047  00000-0  10417-3 0  9990,2 52298  53.2151 192.3880 0004257   8.0528 352.0559 15.73233408  5816,6727.8,91.531,352.529,346.801,0.0
52298.0,STARLINK-3760,PAYLOAD,2022-05-28 14:00:01,15.73259842,0.0004386999999999,53.215,192.1881,5.0652,226.7689,-8.886799999999999e-05,-0.00013118,0.0,0 STARLINK-3760,1 52298U 22041AP  22148.58334491 -.00013118  00000-0 -88868-4 0  9997,2 52298  53.2150 192.1881 0004387   5.0652 226.7689 15.73259842  7030,6727.725,91.53,352.541,346.63800000000015,0.0
52298.0,STARLINK-3760,PAYLOAD,2022-05-28 22:00:00,15.73224586,0.0004113,53.2151,190.5363,4.1044,316.7124,-7.1094e-05,-0.00010606,0.0,0 STARLINK-3760,1 52298U 22041AP  22148.91667824 -.00010606  00000-0 -71094-4 0  9995,2 52298  53.2151 190.5363 0004113   4.1044 316.7124 15.73224586  7086,6727.825,91.532,352.457,346.923,0.0
52298.0,STARLINK-3760,PAYLOAD,2022-05-29 14:00:01,15.73134684,0.0004413,53.2146,187.2392,4.9057,133.7565,0.00034013,0.00047269,0.0,0 STARLINK-3760,1 52298U 22041AP  22149.58334491  .00047269  00000-0  34013-3 0  9992,2 52298  53.2146 187.2392 0004413   4.9057 133.7565 15.73134684  7186,6728.081,91.537,352.916,346.977,0.0
52298.0,STARLINK-3760,PAYLOAD,2022-05-29 19:30:44,15.73190195,0.0004497,53.2149,186.1002,12.0166,348.0961,-4.3358e-05,-6.707e-05,0.0,0 STARLINK-3760,1 52298U 22041AP  22149.81301845 -.00006707  00000-0 -43358-4 0  9992,2 52298  53.2149 186.1002 0004497  12.0166 348.0961 15.73190195  6019,6727.9230000000025,91.534,352.814,346.76300000000015,0.0
52298.0,STARLINK-3760,PAYLOAD,2022-05-30 06:00:00,15.73133984,0.0004211,53.2146,183.9393,2.3459,314.0708,0.0008021,0.00113196,0.0,0 STARLINK-3760,1 52298U 22041AP  22150.25001157  .00113196  00000-0  80210-3 0  9991,2 52298  53.2146 183.9393 0004211   2.3459 314.0708 15.73133984  7291,6728.083000000001,91.537,352.782,347.115,0.0
52298.0,STARLINK-3760,PAYLOAD,2022-05-30 12:17:03,15.7317293,0.0004382,53.2151,182.6417,5.6202,354.4866,-5.9256e-05,-8.928e-05,0.0,0 STARLINK-3760,1 52298U 22041AP  22150.51184032 -.00008928  00000-0 -59256-4 0  9999,2 52298  53.2151 182.6417 0004382   5.6202 354.4866 15.73172930  7333,6727.972,91.535,352.786,346.889,0.0
52298.0,STARLINK-3760,PAYLOAD,2022-05-30 14:00:01,15.73217857,0.0004433,53.2142,182.291,0.364,44.9399,0.0005047,0.00070895,0.0,0 STARLINK-3760,1 52298U 22041AP  22150.58334491  .00070895  00000-0  50470-3 0  9990,2 52298  53.2142 182.2910 0004433   0.3640  44.9399 15.73217857  1303,6727.844,91.532,352.69199999999995,346.727,0.0
52298.0,STARLINK-3760,PAYLOAD,2022-05-30 22:00:00,15.73231375,0.0004112,53.2146,180.6391,358.5936,135.6988,-3.8169e-05,-5.988e-05,0.0,0 STARLINK-3760,1 52298U 22041AP  22150.91667824 -.00005988  00000-0 -38169-4 0  9991,2 52298  53.2146 180.6391 0004112 358.5936 135.6988 15.73231375  7390,6727.806,91.531,352.43699999999984,346.904,0.0
52298.0,STARLINK-3760,PAYLOAD,2022-05-31 06:00:02,15.73224304,0.0004169,53.2148,178.9904,358.6753,224.642,-0.00039248,-0.00055433,0.0,0 STARLINK-3760,1 52298U 22041AP  22151.25002315 -.00055433  00000-0 -39248-3 0  9995,2 52298  53.2148 178.9904 0004169 358.6753 224.6420 15.73224304  1301,6727.826,91.532,352.496,346.886,0.0
52298.0,STARLINK-3760,PAYLOAD,2022-05-31 12:40:43,15.73188392,0.0004397,53.2155,177.6129,7.8612,352.2476,2.171400000000001e-05,2.423e-05,0.0,0 STARLINK-3760,1 52298U 22041AP  22151.52828420  .00002423  00000-0  21714-4 0  9997,2 52298  53.2155 177.6129 0004397   7.8612 352.2476 15.73188392  7495,6727.928000000001,91.534,352.75199999999984,346.835,0.0
52298.0,STARLINK-3760,PAYLOAD,2022-05-31 22:00:00,15.73194809,0.000406,53.2142,175.6903,358.9009,42.2162,0.00062099,0.00087453,0.0,0 STARLINK-3760,1 52298U 22041AP  22151.91667824  .00087453  00000-0  62099-3 0  9995,2 52298  53.2142 175.6903 0004060 358.9009  42.2162 15.73194809  7551,6727.91,91.533,352.50699999999995,347.043,0.0
52298.0,STARLINK-3760,PAYLOAD,2022-06-01 10:01:24,15.73241885,0.0004271,53.2152,173.2117,5.0142,355.092,7.0099e-05,9.246e-05,0.0,0 STARLINK-3760,1 52298U 22041AP  22152.41765012  .00009246  00000-0  70099-4 0  9993,2 52298  53.2152 173.2117 0004271   5.0142 355.0920 15.73241885  7638,6727.776,91.531,352.514,346.767,0.0
52298.0,STARLINK-3760,PAYLOAD,2022-06-01 20:00:01,15.73177972,0.0004005,53.2148,171.15400000000002,354.9651,200.8464,0.00012955,0.00017586,0.0,0 STARLINK-3760,1 52298U 22041AP  22152.83334491  .00017586  00000-0  12955-3 0  9994,2 52298  53.2148 171.1540 0004005 354.9651 200.8464 15.73177972  7697,6727.958000000001,91.534,352.51800000000014,347.12800000000016,0.0
52298.0,STARLINK-3760,PAYLOAD,2022-06-02 18:02:29,15.73214414,0.0004175,53.2152,166.6089,1.3283,358.7748,-5.664199999999999e-07,-7.05e-06,0.0,0 STARLINK-3760,1 52298U 22041AP  22153.75173284 -.00000705  00000-0 -56642-6 0  9998,2 52298  53.2152 166.6089 0004175   1.3283 358.7748 15.73214414  6635,6727.854,91.532,352.528,346.91,0.0
52298.0,STARLINK-3760,PAYLOAD,2022-06-03 03:11:20,15.73270363,0.0003624,53.2158,164.7235,3.8889,356.2159,8.763e-05,0.00011732,0.0,0 STARLINK-3760,1 52298U 22041AP  22154.13287596  .00011732  00000-0  87630-4 0  9992,2 52298  53.2158 164.7235 0003624   3.8889 356.2159 15.73270363  7905,6727.695,91.529,351.99800000000016,347.121,0.0
52298.0,STARLINK-3760,PAYLOAD,2022-06-03 09:17:18,15.73213782,0.0003987,53.2156,163.4661,3.2111,356.8935,-1.5969e-06,-8.49e-06,0.0,0 STARLINK-3760,1 52298U 22041AP  22154.38701397 -.00000849  00000-0 -15969-5 0  9995,2 52298  53.2156 163.4661 0003987   3.2111 356.8935 15.73213782  7940,6727.856,91.532,352.403,347.038,0.0
